STARLINK-30390          
1 57819U 23138M   25219.74502474 -.00000284  00000+0 -59408-5 0  9995
2 57819  43.0035 318.5523 0001512 263.5810  96.4860 15.02538152106471
STARLINK-30409          
1 57820U 23138N   25219.33283640 -.00000402  00000+0 -14671-4 0  9997
2 57820  43.0041 320.6023 0001426 266.8029  93.2650 15.02536007106414
STARLINK-30415          
1 57821U 23138P   25219.60319104  .00000126  00000+0  24399-4 0  9992
2 57821  43.0036 319.2101 0001421 268.6273  91.4406 15.02534266106500
STARLINK-30407          
1 57823U 23138R   25220.11831291  .00000094  00000+0  12935-4 0  9995
2 57823  43.0007 254.9172 0001478 283.0912  76.9774 15.27584316107309
STARLINK-30408          
1 57824U 23138S   25219.33616831  .00000204  00000+0  30174-4 0  9997
2 57824  43.0044 320.6453 0001497 267.9733  92.0938 15.02535978106467
STARLINK-30377          
1 57825U 23138T   25219.58543588 -.00000704  00000+0 -37038-4 0  9996
2 57825  43.0046 319.0786 0001416 268.6307  91.4373 15.02530865106407
STARLINK-30422          
1 57826U 23138U   25219.58875899  .00000509  00000+0  52747-4 0  9995
2 57826  43.0029 319.1002 0001238 267.7799  92.2902 15.02535830106503
STARLINK-30402          
1 57827U 23138V   25219.59320361 -.00000501  00000+0 -21978-4 0  9992
2 57827  43.0034 319.1339 0001416 269.9201  90.1479 15.02533966106507
STARLINK-30411          
1 57828U 23138W   25219.59542065 -.00000819  00000+0 -45581-4 0  9998
2 57828  43.0053 319.1275 0001520 265.6944  94.3724 15.02535797106447
STARLINK-30418          
1 57829U 23138X   25219.31617116  .00001436  00000+0  12133-3 0  9999
2 57829  43.0033 320.4980 0001031 270.8484  89.2240 15.02546572106302
STARLINK-30285          
1 57840U 23141A   25219.95356166  .00000737  00000+0  37021-4 0  9998
2 57840  53.1601 196.9288 0001249  82.4486 277.6656 15.30194959107602
STARLINK-30410          
1 57841U 23141B   25219.96620161  .00000331  00000+0  23316-4 0  9991
2 57841  53.1594 196.8208 0001039  84.5678 275.5441 15.30190493107606
STARLINK-30435          
1 57842U 23141C   25219.64279641 -.00000309  00000+0  16890-5 0  9996
2 57842  53.1596 198.3856 0001208  92.6067 267.5072 15.30190809107551
STARLINK-30423          
1 57843U 23141D   25219.64700994 -.00000081  00000+0  94015-5 0  9999
2 57843  53.1590 198.3675 0001307  91.2069 268.9082 15.30191268107558
STARLINK-30292          
1 57844U 23141E   25219.98089234  .00000917  00000+0  43100-4 0  9999
2 57844  53.1592 196.4023 0001391  88.6482 271.4678 15.30192454107614
STARLINK-30416          
1 57847U 23141H   25219.95989522  .00004831  00000+0  17517-3 0  9999
2 57847  53.1597 196.9368 0001239  96.8755 263.2387 15.30190171107603
