[{"OBJECT_NAME":"STARLINK-30390","OBJECT_ID":"2023-138M","EPOCH":"2025-08-07T17:52:50.137536","MEAN_MOTION":15.02538152,"ECCENTRICITY":0.00015127,"INCLINATION":43.0035,"RA_OF_ASC_NODE":318.5523,"ARG_OF_PERICENTER":263.581,"MEAN_ANOMALY":96.486,"EPHEMERIS_TYPE":0,"CLASSIFICATION_TYPE":"U","NORAD_CAT_ID":57819,"ELEMENT_SET_NO":999,"REV_AT_EPOCH":10647,"BSTAR":-5.940814e-6,"MEAN_MOTION_DOT":-2.84e-6,"MEAN_MOTION_DDOT":0},{"OBJECT_NAME":"STARLINK-30409","OBJECT_ID":"2023-138N","EPOCH":"2025-08-07T07:59:17.064960","MEAN_MOTION":15.02536007,"ECCENTRICITY":0.0001426,"INCLINATION":43.0041,"RA_OF_ASC_NODE":320.6023,"ARG_OF_PERICENTER":266.8029,"MEAN_ANOMALY":93.265,"EPHEMERIS_TYPE":0,"CLASSIFICATION_TYPE":"U","NORAD_CAT_ID":57820,"ELEMENT_SET_NO":999,"REV_AT_EPOCH":10641,"BSTAR":-1.4671e-5,"MEAN_MOTION_DOT":-4.02e-6,"MEAN_MOTION_DDOT":0},{"OBJECT_NAME":"STARLINK-30415","OBJECT_ID":"2023-138P","EPOCH":"2025-08-07T14:28:35.705856","MEAN_MOTION":15.02534266,"ECCENTRICITY":0.0001421,"INCLINATION":43.0036,"RA_OF_ASC_NODE":319.2101,"ARG_OF_PERICENTER":268.6273,"MEAN_ANOMALY":91.4406,"EPHEMERIS_TYPE":0,"CLASSIFICATION_TYPE":"U","NORAD_CAT_ID":57821,"ELEMENT_SET_NO":999,"REV_AT_EPOCH":10650,"BSTAR":2.4399e-5,"MEAN_MOTION_DOT":1.26e-6,"MEAN_MOTION_DDOT":0},{"OBJECT_NAME":"STARLINK-30407","OBJECT_ID":"2023-138R","EPOCH":"2025-08-08T02:50:22.235424","MEAN_MOTION":15.27584316,"ECCENTRICITY":0.0001478,"INCLINATION":43.0007,"RA_OF_ASC_NODE":254.9172,"ARG_OF_PERICENTER":283.0912,"MEAN_ANOMALY":76.9774,"EPHEMERIS_TYPE":0,"CLASSIFICATION_TYPE":"U","NORAD_CAT_ID":57823,"ELEMENT_SET_NO":999,"REV_AT_EPOCH":10730,"BSTAR":1.2935e-5,"MEAN_MOTION_DOT":9.4e-7,"MEAN_MOTION_DDOT":0},{"OBJECT_NAME":"STARLINK-30408","OBJECT_ID":"2023-138S","EPOCH":"2025-08-07T08:04:04.941984","MEAN_MOTION":15.02535978,"ECCENTRICITY":0.00014972,"INCLINATION":43.0044,"RA_OF_ASC_NODE":320.6453,"ARG_OF_PERICENTER":267.9733,"MEAN_ANOMALY":92.0938,"EPHEMERIS_TYPE":0,"CLASSIFICATION_TYPE":"U","NORAD_CAT_ID":57824,"ELEMENT_SET_NO":999,"REV_AT_EPOCH":10646,"BSTAR":3.0173586e-5,"MEAN_MOTION_DOT":2.04e-6,"MEAN_MOTION_DDOT":0},{"OBJECT_NAME":"STARLINK-30377","OBJECT_ID":"2023-138T","EPOCH":"2025-08-07T14:03:01.660032","MEAN_MOTION":15.02530865,"ECCENTRICITY":0.0001416,"INCLINATION":43.0046,"RA_OF_ASC_NODE":319.0786,"ARG_OF_PERICENTER":268.6307,"MEAN_ANOMALY":91.4373,"EPHEMERIS_TYPE":0,"CLASSIFICATION_TYPE":"U","NORAD_CAT_ID":57825,"ELEMENT_SET_NO":999,"REV_AT_EPOCH":10640,"BSTAR":-3.7038e-5,"MEAN_MOTION_DOT":-7.04e-6,"MEAN_MOTION_DDOT":0},{"OBJECT_NAME":"STARLINK-30422","OBJECT_ID":"2023-138U","EPOCH":"2025-08-07T14:07:48.776736","MEAN_MOTION":15.0253583,"ECCENTRICITY":0.0001238,"INCLINATION":43.0029,"RA_OF_ASC_NODE":319.1002,"ARG_OF_PERICENTER":267.7799,"MEAN_ANOMALY":92.2902,"EPHEMERIS_TYPE":0,"CLASSIFICATION_TYPE":"U","NORAD_CAT_ID":57826,"ELEMENT_SET_NO":999,"REV_AT_EPOCH":10650,"BSTAR":5.2747e-5,"MEAN_MOTION_DOT":5.09e-6,"MEAN_MOTION_DDOT":0},{"OBJECT_NAME":"STARLINK-30402","OBJECT_ID":"2023-138V","EPOCH":"2025-08-07T14:14:12.791904","MEAN_MOTION":15.02533966,"ECCENTRICITY":0.0001416,"INCLINATION":43.0034,"RA_OF_ASC_NODE":319.1339,"ARG_OF_PERICENTER":269.9201,"MEAN_ANOMALY":90.1479,"EPHEMERIS_TYPE":0,"CLASSIFICATION_TYPE":"U","NORAD_CAT_ID":57827,"ELEMENT_SET_NO":999,"REV_AT_EPOCH":10650,"BSTAR":-2.1978e-5,"MEAN_MOTION_DOT":-5.01e-6,"MEAN_MOTION_DDOT":0},{"OBJECT_NAME":"STARLINK-30411","OBJECT_ID":"2023-138W","EPOCH":"2025-08-07T14:17:24.344160","MEAN_MOTION":15.02535797,"ECCENTRICITY":0.000152,"INCLINATION":43.0053,"RA_OF_ASC_NODE":319.1275,"ARG_OF_PERICENTER":265.6944,"MEAN_ANOMALY":94.3724,"EPHEMERIS_TYPE":0,"CLASSIFICATION_TYPE":"U","NORAD_CAT_ID":57828,"ELEMENT_SET_NO":999,"REV_AT_EPOCH":10644,"BSTAR":-4.5581e-5,"MEAN_MOTION_DOT":-8.19e-6,"MEAN_MOTION_DDOT":0},{"OBJECT_NAME":"STARLINK-30418","OBJECT_ID":"2023-138X","EPOCH":"2025-08-07T07:35:17.188224","MEAN_MOTION":15.02546572,"ECCENTRICITY":0.0001031,"INCLINATION":43.0033,"RA_OF_ASC_NODE":320.498,"ARG_OF_PERICENTER":270.8484,"MEAN_ANOMALY":89.224,"EPHEMERIS_TYPE":0,"CLASSIFICATION_TYPE":"U","NORAD_CAT_ID":57829,"ELEMENT_SET_NO":999,"REV_AT_EPOCH":10630,"BSTAR":0.00012133,"MEAN_MOTION_DOT":1.436e-5,"MEAN_MOTION_DDOT":0},{"OBJECT_NAME":"STARLINK-30285","OBJECT_ID":"2023-141A","EPOCH":"2025-08-07T22:53:07.727424","MEAN_MOTION":15.30194959,"ECCENTRICITY":0.00012499,"INCLINATION":53.1601,"RA_OF_ASC_NODE":196.9288,"ARG_OF_PERICENTER":82.4486,"MEAN_ANOMALY":277.6656,"EPHEMERIS_TYPE":0,"CLASSIFICATION_TYPE":"U","NORAD_CAT_ID":57840,"ELEMENT_SET_NO":999,"REV_AT_EPOCH":10760,"BSTAR":3.7020673e-5,"MEAN_MOTION_DOT":7.37e-6,"MEAN_MOTION_DDOT":0},{"OBJECT_NAME":"STARLINK-30410","OBJECT_ID":"2023-141B","EPOCH":"2025-08-07T23:11:19.819104","MEAN_MOTION":15.30190493,"ECCENTRICITY":0.00010397,"INCLINATION":53.1594,"RA_OF_ASC_NODE":196.8208,"ARG_OF_PERICENTER":84.5678,"MEAN_ANOMALY":275.5441,"EPHEMERIS_TYPE":0,"CLASSIFICATION_TYPE":"U","NORAD_CAT_ID":57841,"ELEMENT_SET_NO":999,"REV_AT_EPOCH":10760,"BSTAR":2.3316487e-5,"MEAN_MOTION_DOT":3.31e-6,"MEAN_MOTION_DDOT":0},{"OBJECT_NAME":"STARLINK-30435","OBJECT_ID":"2023-141C","EPOCH":"2025-08-07T15:25:37.609824","MEAN_MOTION":15.30190809,"ECCENTRICITY":0.00012087,"INCLINATION":53.1596,"RA_OF_ASC_NODE":198.3856,"ARG_OF_PERICENTER":92.6067,"MEAN_ANOMALY":267.5072,"EPHEMERIS_TYPE":0,"CLASSIFICATION_TYPE":"U","NORAD_CAT_ID":57842,"ELEMENT_SET_NO":999,"REV_AT_EPOCH":10755,"BSTAR":1.688981e-6,"MEAN_MOTION_DOT":-3.09e-6,"MEAN_MOTION_DDOT":0},{"OBJECT_NAME":"STARLINK-30423","OBJECT_ID":"2023-141D","EPOCH":"2025-08-07T15:31:41.658816","MEAN_MOTION":15.30191268,"ECCENTRICITY":0.00013071,"INCLINATION":53.159,"RA_OF_ASC_NODE":198.3675,"ARG_OF_PERICENTER":91.2069,"MEAN_ANOMALY":268.9082,"EPHEMERIS_TYPE":0,"CLASSIFICATION_TYPE":"U","NORAD_CAT_ID":57843,"ELEMENT_SET_NO":999,"REV_AT_EPOCH":10755,"BSTAR":9.401487e-6,"MEAN_MOTION_DOT":-8.1e-7,"MEAN_MOTION_DDOT":0},{"OBJECT_NAME":"STARLINK-30292","OBJECT_ID":"2023-141E","EPOCH":"2025-08-07T23:32:29.098176","MEAN_MOTION":15.30192454,"ECCENTRICITY":0.0001391,"INCLINATION":53.1592,"RA_OF_ASC_NODE":196.4023,"ARG_OF_PERICENTER":88.6482,"MEAN_ANOMALY":271.4678,"EPHEMERIS_TYPE":0,"CLASSIFICATION_TYPE":"U","NORAD_CAT_ID":57844,"ELEMENT_SET_NO":999,"REV_AT_EPOCH":10761,"BSTAR":4.31e-5,"MEAN_MOTION_DOT":9.17e-6,"MEAN_MOTION_DDOT":0},{"OBJECT_NAME":"STARLINK-30416","OBJECT_ID":"2023-141H","EPOCH":"2025-08-07T23:02:14.947008","MEAN_MOTION":15.30190171,"ECCENTRICITY":0.00012395,"INCLINATION":53.1597,"RA_OF_ASC_NODE":196.9368,"ARG_OF_PERICENTER":96.8755,"MEAN_ANOMALY":263.2387,"EPHEMERIS_TYPE":0,"CLASSIFICATION_TYPE":"U","NORAD_CAT_ID":57847,"ELEMENT_SET_NO":999,"REV_AT_EPOCH":10760,"BSTAR":0.0001751708,"MEAN_MOTION_DOT":4.831e-5,"MEAN_MOTION_DDOT":0}]
